[{"OBJECT_NAME":"OBJECT C","OBJECT_ID":"2024-092C","EPOCH":"2026-03-09T23:10:26.961312","MEAN_MOTION":15.27308901,"ECCENTRICITY":0.00097974,"INCLINATION":97.6475,"RA_OF_ASC_NODE":197.1606,"ARG_OF_PERICENTER":169.1353,"MEAN_ANOMALY":191.0098,"EPHEMERIS_TYPE":0,"CLASSIFICATION_TYPE":"U","NORAD_CAT_ID":59775,"ELEMENT_SET_NO":999,"REV_AT_EPOCH":10042,"BSTAR":0.00057925748,"MEAN_MOTION_DOT":0.00015454,"MEAN_MOTION_DDOT":0},{"OBJECT_NAME":"STARLINK-36201","OBJECT_ID":"2025-303B","EPOCH":"2026-03-09T01:30:50.944032","MEAN_MOTION":15.2758111,"ECCENTRICITY":0.00026172,"INCLINATION":43.0035,"RA_OF_ASC_NODE":313.8854,"ARG_OF_PERICENTER":255.6496,"MEAN_ANOMALY":104.4066,"EPHEMERIS_TYPE":0,"CLASSIFICATION_TYPE":"U","NORAD_CAT_ID":67164,"ELEMENT_SET_NO":999,"REV_AT_EPOCH":1264,"BSTAR":0.0016085417,"MEAN_MOTION_DOT":0.00044271,"MEAN_MOTION_DDOT":0}]
